{
  "norad_id": 67310,
  "name": "STARLINK-36491",
  "history": [
    {
      "epoch": "2026-03-28T16:48:33.517152Z",
      "apogee_km": 484.1743339195982,
      "perigee_km": 481.73192305565954,
      "latitude_deg": 1.9495327510920018e-05,
      "longitude_deg": 139.87989629676147,
      "height_km": 482.699830149072,
      "semi_major_axis_km": 6861.090128487628,
      "eccentricity": 0.00017799,
      "inclination_deg": 43.0008,
      "raan_deg": 218.1366,
      "arg_perigee_deg": 271.4261,
      "mean_anomaly_deg": 88.6387,
      "mean_motion_rev_day": 15.2761205
    }
  ]
}